0 COSMOS 89
1 01587U 65073D   13282.14583880 -.00000091  00000-0  30217-5 0  9679
2 01587 056.0556 161.2809 0171433 306.5936 222.8320 12.38936801175023
0 COSMOS 89
1 01587U 65073D   13284.16396626 -.00000070  00000-0  15809-3 0  9689
2 01587 056.0552 155.9435 0171502 309.2852 224.0015 12.38936421175278
0 COSMOS 89
1 01587U 65073D   13286.80373912 -.00000061  00000-0  22486-3 0  9695
2 01587 056.0550 148.9618 0171591 312.7985 117.8142 12.38936621175604
0 COSMOS 89
1 01587U 65073D   13288.90670286 -.00000082  00000-0  71028-4 0  9704
2 01587 056.0548 143.4000 0171677 315.5979 137.3709 12.38937020175863
0 COSMOS 89
1 01587U 65073D   13291.02159642 -.00000113  00000-0 -14844-3 0  9718
2 01587 056.0550 137.8064 0171749 318.4134 210.1382 12.38937254176124
0 COSMOS 89
1 01587U 65073D   13293.03897874 -.00000108  00000-0 -11124-3 0  9720
2 01587 056.0552 132.4709 0171805 321.0989 207.9923 12.38937133176372
0 COSMOS 89
1 01587U 65073D   13295.51113825 -.00000080  00000-0  88009-4 0  9738
2 01587 056.0554 125.9324 0171866 324.3801 074.2366 12.38936981176680
